     2.100          NAVIGATION                              RINEX VERSION / TYPE
fic2rin                                 11/24/2008 07:44:23 PGM / RUN BY / DATE
                                                            END OF HEADER
29 08 11 23  8  0  0.0 -.286055728793D-04  .193267624127D-11  .000000000000D+00
     .730000000000D+02 -.240937500000D+02  .460697761340D-08  .151877816369D+01
    -.136531889439D-05  .325717066880D-02  .100657343864D-04  .515379089928D+04
     .288000000000D+05  .707805156708D-07  .183984721275D+01 -.108033418655D-06
     .959458524933D+00  .183593750000D+03 -.133948273371D+01 -.796997483859D-08
    -.461090634847D-09  .100000000000D+01  .150700000000D+04  .000000000000D+00
     .340000000000D+01  .000000000000D+00 -.884756445885D-08  .730000000000D+02
     .216060000000D+05  .400000000000D+01
30 08 11 23  8  0  0.0  .109527725726D-03  .216004991671D-11  .000000000000D+00
     .740000000000D+02 -.125000000000D+00  .527129099900D-08 -.223420389327D+00
    -.558793544769D-08  .111790734809D-01  .553019344807D-05  .515366186142D+04
     .288000000000D+05 -.126659870148D-06  .728260762778D+00  .968575477600D-07
     .950124741858D+00  .267812500000D+03  .141476557771D+01 -.861428739108D-08
     .135362781260D-09  .100000000000D+01  .150700000000D+04  .000000000000D+00
     .240000000000D+01  .000000000000D+00 -.791624188423D-08  .740000000000D+02
     .216060000000D+05  .400000000000D+01
32 08 11 23  8  0  0.0  .312965363264D-03 -.147792889038D-11  .000000000000D+00
     .840000000000D+02  .219687500000D+02  .455733268834D-08 -.311020590712D+01
     .100396573544D-05  .138935534051D-01  .215135514736D-05  .515370447731D+04
     .288000000000D+05  .217929482460D-06 -.228708319726D+01  .173225998878D-06
     .966623888908D+00  .337406250000D+03 -.124596984579D+01 -.814783939022D-08
     .485734518507D-10  .100000000000D+01  .150700000000D+04  .000000000000D+00
     .240000000000D+01  .000000000000D+00 -.325962901115D-08  .840000000000D+02
     .216060000000D+05  .400000000000D+01
 2 08 11 23  7 59 44.0  .171395950019D-03 -.250111042988D-11  .000000000000D+00
     .100000000000D+01  .102625000000D+03  .464233622908D-08 -.212935400613D+01
     .535883009434D-05  .880900560878D-02  .942312180996D-05  .515358915710D+04
     .287840000000D+05 -.149011611938D-06  .285299895516D+01  .149011611938D-07
     .942684656497D+00  .189812500000D+03  .267586726002D+01 -.812712424163D-08
     .197508227010D-09  .100000000000D+01  .150700000000D+04  .000000000000D+00
     .240000000000D+01  .000000000000D+00 -.172294676304D-07  .100000000000D+01
     .237060000000D+05  .400000000000D+01
28 08 11 23  7 59 44.0 -.236094929278D-04 -.113686837722D-12  .000000000000D+00
     .150000000000D+02 -.784375000000D+01  .492341936589D-08 -.638507508492D+00
    -.296160578728D-06  .142162096454D-01  .533461570740D-05  .515362896538D+04
     .287840000000D+05 -.987201929092D-07  .798113031034D+00  .201165676117D-06
     .964892788686D+00  .279937500000D+03 -.208353073201D+01 -.846999566646D-08
    -.146434671020D-10  .100000000000D+01  .150700000000D+04  .000000000000D+00
     .240000000000D+01  .000000000000D+00 -.102445483208D-07  .150000000000D+02
     .238260000000D+05  .400000000000D+01
22 08 11 23  7 59 44.0  .208992045373D-03 -.227373675443D-12  .000000000000D+00
     .400000000000D+01  .285625000000D+02  .523914680292D-08 -.998939187518D+00
     .155903398991D-05  .509947084356D-02  .244006514549D-05  .515366756630D+04
     .287840000000D+05 -.633299350739D-07 -.233292893156D+01  .141561031342D-06
     .942778305198D+00  .323531250000D+03 -.181023397064D+01 -.874072122898D-08
     .489306095849D-10  .100000000000D+01  .150700000000D+04  .000000000000D+00
     .240000000000D+01  .000000000000D+00 -.181607902050D-07  .400000000000D+01
     .264360000000D+05  .400000000000D+01
27 08 11 23  7 59 28.0  .216206535697D-05  .295585778076D-11  .000000000000D+00
     .340000000000D+02 -.534375000000D+01  .433446626220D-08  .509164759293D+00
    -.201165676117D-06  .208866979228D-01  .104103237391D-04  .515524126434D+04
     .287680000000D+05 -.292435288429D-06 -.336631161971D+00 -.651925802231D-07
     .972219446694D+00  .193093750000D+03 -.168609421101D+01 -.823141430002D-08
     .233581158164D-09  .100000000000D+01  .150700000000D+04  .000000000000D+00
     .240000000000D+01  .000000000000D+00 -.465661287308D-08  .340000000000D+02
     .267060000000D+05  .400000000000D+01
 5 08 11 23  7 59 44.0 -.397853087634D-03 -.648014975013D-11  .000000000000D+00
     .700000000000D+01  .318750000000D+01  .536736642950D-08  .305857675148D+00
     .126659870148D-06  .937557849102D-02  .549107789993D-05  .515365468407D+04
     .287840000000D+05 -.137835741043D-06  .675492985817D+00  .447034835815D-07
     .944187212342D+00  .264562500000D+03  .129413674540D+01 -.862857370044D-08
     .112147528538D-09  .100000000000D+01  .150700000000D+04  .000000000000D+00
     .240000000000D+01  .000000000000D+00 -.419095158577D-08  .700000000000D+01
     .267060000000D+05  .400000000000D+01
27 08 11 23  9 59 28.0  .218348577619D-05  .295585778076D-11  .000000000000D+00
     .350000000000D+02 -.237187500000D+02  .413052919598D-08  .155829275719D+01
    -.151246786118D-05  .208883131854D-01  .102408230305D-04  .515524600029D+04
     .359680000000D+05 -.121071934700D-06 -.336690682256D+00 -.577419996262D-06
     .972223269299D+00  .192218750000D+03 -.168600215689D+01 -.780853954273D-08
     .399659504565D-09  .100000000000D+01  .150700000000D+04  .000000000000D+00
     .240000000000D+01  .000000000000D+00 -.465661287308D-08  .350000000000D+02
     .288060000000D+05  .400000000000D+01
 2 08 11 23  9 59 44.0  .171378254890D-03 -.250111042988D-11  .000000000000D+00
     .200000000000D+01  .867187500000D+02  .475341228442D-08 -.107940113456D+01
     .458024442196D-05  .880918686744D-02  .908970832825D-05  .515358445930D+04
     .359840000000D+05 -.145286321640D-06  .285294021607D+01 -.106170773506D-06
     .942686082842D+00  .198156250000D+03  .267614981094D+01 -.815783980677D-08
     .184293390845D-09  .100000000000D+01  .150700000000D+04  .000000000000D+00
     .240000000000D+01  .000000000000D+00 -.172294676304D-07  .200000000000D+01
     .288060000000D+05  .400000000000D+01
 5 08 11 23  9 59 44.0 -.397899653763D-03 -.636646291241D-11  .000000000000D+00
     .800000000000D+01  .240625000000D+01  .533022202514D-08  .135604582345D+01
    -.186264514923D-07  .937568023801D-02  .552460551262D-05  .515365495300D+04
     .359840000000D+05 -.227242708206D-06  .675430571880D+00 -.109896063805D-06
     .944188403157D+00  .264031250000D+03  .129414734716D+01 -.853071248127D-08
     .175007289756D-09  .100000000000D+01  .150700000000D+04  .000000000000D+00
     .240000000000D+01  .000000000000D+00 -.419095158577D-08  .800000000000D+01
     .288060000000D+05  .400000000000D+01
22 08 11 23  9 59 44.0  .208990182728D-03 -.227373675443D-12  .000000000000D+00
     .220000000000D+02  .224062500000D+02  .526021910924D-08  .511691410458D-01
     .117346644402D-05  .509870972019D-02  .241026282310D-05  .515366591454D+04
     .359840000000D+05 -.117346644402D-06 -.233299204184D+01  .633299350739D-07
     .942778609485D+00  .324031250000D+03 -.181015179707D+01 -.876286500850D-08
     .357157734196D-10  .100000000000D+01  .150700000000D+04  .000000000000D+00
     .240000000000D+01  .000000000000D+00 -.181607902050D-07  .220000000000D+02
     .288060000000D+05  .400000000000D+01
28 08 11 23  9 59 44.0 -.236104242504D-04 -.113686837722D-12  .000000000000D+00
     .160000000000D+02  .156250000000D+00  .491949063082D-08  .411715861024D+00
     .119209289551D-06  .142173637869D-01  .548176467419D-05  .515363121986D+04
     .359840000000D+05 -.108033418655D-06  .798051625048D+00  .894069671631D-07
     .964892661412D+00  .278125000000D+03 -.208354359838D+01 -.851606901417D-08
    -.607168148133D-11  .100000000000D+01  .150700000000D+04  .000000000000D+00
     .240000000000D+01  .000000000000D+00 -.102445483208D-07  .160000000000D+02
     .288060000000D+05  .400000000000D+01
 1 08 11 23 10  0  0.0 -.120372511446D-03 -.475210981676D-10  .000000000000D+00
     .135000000000D+03 -.265625000000D+02  .512807074759D-08  .251185878708D+01
    -.146776437759D-05  .978349358775D-02  .887177884579D-05  .515378359032D+04
     .360000000000D+05  .154599547386D-06  .174853008441D+01 -.577419996262D-07
     .934929111870D+00  .190250000000D+03 -.149868826227D+01 -.811390940547D-08
    -.551094383865D-09  .100000000000D+01  .150700000000D+04  .000000000000D+00
     .240000000000D+01  .630000000000D+02 -.232830643654D-08  .135000000000D+03
     .288060000000D+05  .400000000000D+01
 3 08 11 23 10  0  0.0  .315040815622D-03  .534328137292D-11  .000000000000D+00
     .740000000000D+02 -.360000000000D+02  .540772525346D-08 -.139431815666D+01
    -.180676579475D-05  .114891184494D-01  .818446278572D-05  .515371257591D+04
     .360000000000D+05  .290572643280D-06  .170735976168D+01  .000000000000D+00
     .925662918536D+00  .200437500000D+03  .877378489559D+00 -.838784938760D-08
    -.467876631797D-09  .100000000000D+01  .150700000000D+04  .000000000000D+00
     .240000000000D+01  .000000000000D+00 -.419095158577D-08  .740000000000D+02
     .288060000000D+05  .400000000000D+01
 4 08 11 23 10  0  0.0 -.241513364017D-03 -.123918653117D-10  .000000000000D+00
     .630000000000D+02  .855937500000D+02  .476484133191D-08  .178781720147D+01
     .455789268017D-05  .853548827581D-02  .967271625996D-05  .515363334656D+04
     .360000000000D+05 -.132247805595D-06  .287154139939D+01  .800937414169D-07
     .941953030685D+00  .187343750000D+03  .435562868153D+00 -.819712715753D-08
    -.135719938995D-10  .100000000000D+01  .150700000000D+04  .000000000000D+00
     .240000000000D+01  .000000000000D+00 -.605359673500D-08  .630000000000D+02
     .288060000000D+05  .400000000000D+01
